{"type": "FeatureCollection", "features": [{"geometry": {"type": "Point", "coordinates": [80.21416667, 12.99944444]}, "type": "Feature", "properties": {"addr:housenumber": "", "amenity": "library", "name": "District Branch Library, Maduvankarai", "opening_hours": "Mo-Th 08:00-11:30,14:00-19:00; week 02 Sa off; Su off", "addr:city": "Chennai", "address:postcode": "600032", "operator": "Directorate of Public Libraries", "addr:country": "IN", "addr:street": "Five furlong road, Maduvankarai, Guindy"}}, {"geometry": {"type": "Point", "coordinates": [80.26510798, 13.04009459]}, "type": "Feature", "properties": {"addr:housenumber": "101/44 A", "amenity": "library", "name": "District Branch Library, Mylapore", "opening_hours": "Mo-Th 08:00-11:30,16:00-19:00; week 02 Sa off; Fr off", "address:postcode": "600042", "operator": "Directorate of Public Libraries", "addr:street": "Veeraperumal Koil Street, Mylapore", "addr:country": "IN", "addr:city": "Chennai"}}, {"geometry": {"type": "Point", "coordinates": [80.26689654, 13.02920579]}, "type": "Feature", "properties": {"addr:housenumber": "37", "amenity": "library", "name": "Chennai District Branch Library, Mandaiveli", "opening_hours": "Mo-Th 08:00-11:30,16:00-19:00; week 02 Sa off; Fr off", "addr:city": "Chennai", "address:postcode": "600028", "operator": "Directorate of Public Libraries", "addr:country": "IN", "addr:street": "Mandaiveli Mylapore Road"}}, {"geometry": {"type": "Point", "coordinates": [80.25853169, 12.97496192]}, "type": "Feature", "properties": {"addr:housenumber": "", "amenity": "library", "name": "Panuval Book Shop", "opening_hours": "Weekdays", "address:postcode": "600041", "operator": "Directorate of Public Libraries", "addr:street": "Thiruvanmiyur East Coast Road", "addr:country": "IN", "addr:city": "Chennai"}}, {"geometry": {"type": "Point", "coordinates": [80.266444, 13.032611]}, "type": "Feature", "properties": {"addr:housenumber": "", "amenity": "library", "name": "District Branch Library, Mylapore", "marker-symbol": "library", "opening_hours": "Mo-Th 08:00-11:30,14:00-19:00; week 02 Sa off; Su off", "addr:city": "Chennai", "address:postcode": "600004", "operator": "Directorate of Public Libraries", "addr:country": "IN", "addr:street": "Venkatesa Agraharam"}}, {"geometry": {"type": "Point", "coordinates": [80.15174, 12.88531]}, "type": "Feature", "properties": {"addr:housenumber": "", "amenity": "library", "name": "Agaram Then panchayat Library", "marker-symbol": "library", "opening_hours": "Mo-Fr 08:00-13:00,16:00-19:00; Sa off; Su off", "address:postcode": "600073", "operator": "Directorate of Public Libraries", "addr:street": "Agaram Then Road", "addr:country": "IN", "addr:city": "Chennai"}}, {"geometry": {"type": "Point", "coordinates": [80.22611, 12.97964]}, "type": "Feature", "properties": {"addr:housenumber": "153", "amenity": "library", "name": "District full-time library, Velachery", "marker-symbol": "library", "opening_hours": "Mo-Th 08:00-20:00; Fr off; week 02 Sa off", "addr:city": "Chennai", "address:postcode": "600042", "operator": "Directorate of Public Libraries", "addr:country": "IN", "addr:street": "7th Avenue, Thandeeswaram Nagar, Velachery"}}, {"geometry": {"type": "Point", "coordinates": [80.21416666666667, 12.999444444444444]}, "type": "Feature", "properties": {"addr:housenumber": "123", "amenity": "library", "name": "xyz", "marker-symbol": "library", "address:postcode": "999999", "operator": "Directorate of Public Libraries", "opening_hours": "abc", "addr:street": "def", "addr:country": "IN", "addr:city": "Chennai"}}]}