{
    "features": [
        {
            "geometry": {
                "coordinates": [
                    80.21416667,
                    12.99944444
                ],
                "type": "Point"
            },
            "properties": {
                "addr:city": "Chennai",
                "addr:country": "IN",
                "addr:housenumber": "",
                "addr:street": "Five furlong road, Maduvankarai, Guindy",
                "address:postcode": "600032",
                "amenity": "library",
                "marker-color": "#00ff00",
                "marker-symbol": "library",
                "name": "District Branch Library, Maduvankarai",
                "opening_hours": "Mo-Th 08:00-11:30,14:00-19:00; week 02 Sa off; Su off",
                "operator": "Directorate of Public Libraries"
            },
            "type": "Feature"
        },
        {
            "geometry": {
                "coordinates": [
                    80.26510798,
                    13.04009459
                ],
                "type": "Point"
            },
            "properties": {
                "addr:city": "Chennai",
                "addr:country": "IN",
                "addr:housenumber": "101/44 A",
                "addr:street": "Veeraperumal Koil Street, Mylapore",
                "address:postcode": "600042",
                "amenity": "library",
                "marker-color": "#00ff00",
                "marker-symbol": "library",
                "name": "District Branch Library, Mylapore",
                "opening_hours": "Mo-Th 08:00-11:30,16:00-19:00; week 02 Sa off; Fr off",
                "operator": "Directorate of Public Libraries"
            },
            "type": "Feature"
        },
        {
            "geometry": {
                "coordinates": [
                    80.26689654,
                    13.02920579
                ],
                "type": "Point"
            },
            "properties": {
                "addr:city": "Chennai",
                "addr:country": "IN",
                "addr:housenumber": "37",
                "addr:street": "Mandaiveli Mylapore Road",
                "address:postcode": "600028",
                "amenity": "library",
                "marker-color": "#00ff00",
                "marker-symbol": "library",
                "name": "Chennai District Branch Library, Mandaiveli",
                "opening_hours": "Mo-Th 08:00-11:30,16:00-19:00; week 02 Sa off; Fr off",
                "operator": "Directorate of Public Libraries"
            },
            "type": "Feature"
        },
        {
            "geometry": {
                "coordinates": [
                    80.25853169,
                    12.97496192
                ],
                "type": "Point"
            },
            "properties": {
                "addr:city": "Chennai",
                "addr:country": "IN",
                "addr:housenumber": "",
                "addr:street": "Thiruvanmiyur East Coast Road",
                "address:postcode": "600041",
                "amenity": "library",
                "marker-color": "#00ff00",
                "marker-symbol": "library",
                "name": "Panuval Book Shop",
                "opening_hours": "Weekdays",
                "operator": "Directorate of Public Libraries"
            },
            "type": "Feature"
        },
        {
            "geometry": {
                "coordinates": [
                    80.266444,
                    13.032611
                ],
                "type": "Point"
            },
            "properties": {
                "addr:city": "Chennai",
                "addr:country": "IN",
                "addr:housenumber": "",
                "addr:street": "Venkatesa Agraharam",
                "address:postcode": "600004",
                "amenity": "library",
                "marker-color": "#00ff00",
                "marker-symbol": "library",
                "name": "District Branch Library, Mylapore",
                "opening_hours": "Mo-Th 08:00-11:30,14:00-19:00; week 02 Sa off; Su off",
                "operator": "Directorate of Public Libraries"
            },
            "type": "Feature"
        },
        {
            "geometry": {
                "coordinates": [
                    80.15174,
                    12.88531
                ],
                "type": "Point"
            },
            "properties": {
                "addr:city": "Chennai",
                "addr:country": "IN",
                "addr:housenumber": "",
                "addr:street": "Agaram Then Road",
                "address:postcode": "600073",
                "amenity": "library",
                "marker-color": "#00ff00",
                "marker-symbol": "library",
                "name": "Agaram Then panchayat Library",
                "opening_hours": "Mo-Fr 08:00-13:00,16:00-19:00; Sa off; Su off",
                "operator": "Directorate of Public Libraries"
            },
            "type": "Feature"
        },
        {
            "geometry": {
                "coordinates": [
                    80.22611,
                    12.97964
                ],
                "type": "Point"
            },
            "properties": {
                "addr:city": "Chennai",
                "addr:country": "IN",
                "addr:housenumber": "153",
                "addr:street": "7th Avenue, Thandeeswaram Nagar, Velachery",
                "address:postcode": "600042",
                "amenity": "library",
                "marker-color": "#00ff00",
                "marker-symbol": "library",
                "name": "District full-time library, Velachery",
                "opening_hours": "Mo-Th 08:00-20:00; Fr off; week 02 Sa off",
                "operator": "Directorate of Public Libraries"
            },
            "type": "Feature"
        },
        {
            "geometry": {
                "coordinates": [
                    80.24422,
                    13.04174
                ],
                "type": "Point"
            },
            "properties": {
                "addr:city": "Chennai",
                "addr:country": "IN",
                "addr:housenumber": "",
                "addr:street": "North Boag Road, T-Nagar",
                "address:postcode": "600032",
                "amenity": "library",
                "marker-color": "#ff0000",
                "marker-symbol": "library",
                "name": "Eloor Private Library",
                "opening_hours": "Mo-Fr 10:00-18:00",
                "operator": "Directorate of Public Libraries"
            },
            "type": "Feature"
        }
    ],
    "type": "FeatureCollection"
}
